STARLINK-32393          
1 61862U 24202T   26068.47224197  .00000327  00000+0  21414-4 0  9998
2 61862  43.0016 239.2823 0001732 279.9745  80.0911 15.27579329 75308
FLOCK 4G-24             
1 62637U 25009AE  26068.72509072  .00010513  00000+0  38996-3 0  9991
2 62637  97.4061 151.5140 0001802 280.2808  79.8228 15.27784978 63732
