[{"OBJECT_NAME":"STARLINK-32393","OBJECT_ID":"2024-202T","EPOCH":"2026-03-09T11:20:01.706208","MEAN_MOTION":15.27579329,"ECCENTRICITY":0.00017329,"INCLINATION":43.0016,"RA_OF_ASC_NODE":239.2823,"ARG_OF_PERICENTER":279.9745,"MEAN_ANOMALY":80.0911,"EPHEMERIS_TYPE":0,"CLASSIFICATION_TYPE":"U","NORAD_CAT_ID":61862,"ELEMENT_SET_NO":999,"REV_AT_EPOCH":7530,"BSTAR":2.1413949e-5,"MEAN_MOTION_DOT":3.27e-6,"MEAN_MOTION_DDOT":0},{"OBJECT_NAME":"FLOCK 4G-24","OBJECT_ID":"2025-009AE","EPOCH":"2026-03-09T17:24:07.838208","MEAN_MOTION":15.27784978,"ECCENTRICITY":0.0001802,"INCLINATION":97.4061,"RA_OF_ASC_NODE":151.514,"ARG_OF_PERICENTER":280.2808,"MEAN_ANOMALY":79.8228,"EPHEMERIS_TYPE":0,"CLASSIFICATION_TYPE":"U","NORAD_CAT_ID":62637,"ELEMENT_SET_NO":999,"REV_AT_EPOCH":6373,"BSTAR":0.00038996067,"MEAN_MOTION_DOT":0.00010513,"MEAN_MOTION_DDOT":0}]
